KUIPER-00140            
1 65965U 25228U   26199.21296029  .00001588  00000+0  23736-3 0  9993
2 65965  51.8990 128.4882 0000791  93.3035 266.8018 14.79926752 42760
KUIPER-00141            
1 65966U 25228V   26199.21835864  .00001664  00000+0  24715-3 0  9993
2 65966  51.9026 123.5217 0000955  87.4131 272.6941 14.79937302 42834
KUIPER-00146            
1 65967U 25228W   26199.24941773  .00001619  00000+0  24137-3 0  9992
2 65967  51.9030 125.8948 0000844  93.8551 266.2508 14.79916115 42804
KUIPER-00149            
1 65968U 25228X   26199.22105801  .00001700  00000+0  25189-3 0  9994
2 65968  51.9009 120.9049 0000988  90.8713 269.2362 14.79941179 42871
KUIPER-00154            
1 65969U 25228Y   26199.18997975  .00001632  00000+0  24299-3 0  9996
2 65969  51.8996 118.5321 0000850  94.2362 265.8697 14.79930304 42903
KUIPER-00157            
1 65970U 25228Z   26199.17621856  .00001238  00000+0  18598-3 0  9996
2 65970  51.9024 121.1190 0001234  58.9992 301.1092 14.81200348 42864
KUIPER-00144            
1 67133U 25301A   26199.30627765  .00001018  00000+0  16252-3 0  9992
2 67133  51.9007 198.0327 0000444  56.4331 303.6674 14.79925716 33217
KUIPER-00164            
1 67134U 25301B   26199.29002132  .00050330  00000+0  70334-2 0  9997
2 67134  51.9032 210.5818 0000940  96.8235 263.2833 14.77120902 33213
KUIPER-00175            
1 67135U 25301C   26199.27783049  .00000057  00000+0  36526-4 0  9997
2 67135  51.8993 193.1172 0000775 101.8092 258.2958 14.79921506 33350
KUIPER-00179            
1 67136U 25301D   26199.29548892  .00001063  00000+0  16835-3 0  9993
2 67136  51.8976 208.0498 0000407  63.4164 296.6840 14.79939611 33255
KUIPER-00181            
1 67137U 25301E   26198.06645617  .00001131  00000+0  17734-3 0  9996
2 67137  51.9018 226.0238 0000956  64.9664 295.1398 14.79926709 32879
KUIPER-00183            
1 67138U 25301F   26199.26685640  .00001553  00000+0  17264-3 0  9996
2 67138  51.8931 192.7039 0009571 132.8806 227.2967 14.92769229 33456
KUIPER-00184            
1 67139U 25301G   26198.72685339  .00000790  00000+0  13262-3 0  9998
2 67139  51.8983 205.5689 0000373  61.6245 298.4755 14.79938668 33337
KUIPER-00186            
1 67140U 25301H   26199.04565928  .00001042  00000+0  16573-3 0  9996
2 67140  51.9016 221.7044 0000427  81.7438 278.3573 14.79929403 32868
KUIPER-00187            
1 67141U 25301J   26199.04297580  .00000853  00000+0  14091-3 0  9995
2 67141  51.9025 224.2402 0000405  91.2109 268.8900 14.79939747 32828
KUIPER-00188            
1 67142U 25301K   26199.17933108  .00001063  00000+0  16841-3 0  9992
2 67142  51.9017 191.2237 0000499  67.2510 292.8505 14.79927759 33291
