{"fetched_at":"2026-07-18T17:29:29.751Z","source":"https://celestrak.org/NORAD/elements/gp.php?GROUP=kuiper&FORMAT=JSON","constellation":"kuiper","records":[{"OBJECT_NAME":"KUIPER-00140","OBJECT_ID":"2025-228U","EPOCH":"2026-07-18T05:06:39.769056","CLASSIFICATION_TYPE":"U","MEAN_MOTION":14.79926752,"ECCENTRICITY":0.00007917,"INCLINATION":51.899,"RA_OF_ASC_NODE":128.4882,"ARG_OF_PERICENTER":93.3035,"MEAN_ANOMALY":266.8018,"EPHEMERIS_TYPE":0,"NORAD_CAT_ID":65965,"ELEMENT_SET_NO":999,"REV_AT_EPOCH":4276,"BSTAR":0.00023735894,"MEAN_MOTION_DOT":0.00001588,"MEAN_MOTION_DDOT":0},{"OBJECT_NAME":"KUIPER-00141","OBJECT_ID":"2025-228V","EPOCH":"2026-07-18T05:14:26.186496","CLASSIFICATION_TYPE":"U","MEAN_MOTION":14.79937302,"ECCENTRICITY":0.00009551,"INCLINATION":51.9026,"RA_OF_ASC_NODE":123.5217,"ARG_OF_PERICENTER":87.4131,"MEAN_ANOMALY":272.6941,"EPHEMERIS_TYPE":0,"NORAD_CAT_ID":65966,"ELEMENT_SET_NO":999,"REV_AT_EPOCH":4283,"BSTAR":0.00024715455,"MEAN_MOTION_DOT":0.00001664,"MEAN_MOTION_DDOT":0},{"OBJECT_NAME":"KUIPER-00146","OBJECT_ID":"2025-228W","EPOCH":"2026-07-18T05:59:09.691872","CLASSIFICATION_TYPE":"U","MEAN_MOTION":14.79916115,"ECCENTRICITY":0.00008444,"INCLINATION":51.903,"RA_OF_ASC_NODE":125.8948,"ARG_OF_PERICENTER":93.8551,"MEAN_ANOMALY":266.2508,"EPHEMERIS_TYPE":0,"NORAD_CAT_ID":65967,"ELEMENT_SET_NO":999,"REV_AT_EPOCH":4280,"BSTAR":0.00024136605,"MEAN_MOTION_DOT":0.00001619,"MEAN_MOTION_DDOT":0},{"OBJECT_NAME":"KUIPER-00149","OBJECT_ID":"2025-228X","EPOCH":"2026-07-18T05:18:19.412064","CLASSIFICATION_TYPE":"U","MEAN_MOTION":14.79941179,"ECCENTRICITY":0.00009882,"INCLINATION":51.9009,"RA_OF_ASC_NODE":120.9049,"ARG_OF_PERICENTER":90.8713,"MEAN_ANOMALY":269.2362,"EPHEMERIS_TYPE":0,"NORAD_CAT_ID":65968,"ELEMENT_SET_NO":999,"REV_AT_EPOCH":4287,"BSTAR":0.00025188857,"MEAN_MOTION_DOT":0.000017,"MEAN_MOTION_DDOT":0},{"OBJECT_NAME":"KUIPER-00154","OBJECT_ID":"2025-228Y","EPOCH":"2026-07-18T04:33:34.250400","CLASSIFICATION_TYPE":"U","MEAN_MOTION":14.79930304,"ECCENTRICITY":0.000085,"INCLINATION":51.8996,"RA_OF_ASC_NODE":118.5321,"ARG_OF_PERICENTER":94.2362,"MEAN_ANOMALY":265.8697,"EPHEMERIS_TYPE":0,"NORAD_CAT_ID":65969,"ELEMENT_SET_NO":999,"REV_AT_EPOCH":4290,"BSTAR":0.00024299317,"MEAN_MOTION_DOT":0.00001632,"MEAN_MOTION_DDOT":0},{"OBJECT_NAME":"KUIPER-00157","OBJECT_ID":"2025-228Z","EPOCH":"2026-07-18T04:13:45.283584","CLASSIFICATION_TYPE":"U","MEAN_MOTION":14.81200348,"ECCENTRICITY":0.00012342,"INCLINATION":51.9024,"RA_OF_ASC_NODE":121.119,"ARG_OF_PERICENTER":58.9992,"MEAN_ANOMALY":301.1092,"EPHEMERIS_TYPE":0,"NORAD_CAT_ID":65970,"ELEMENT_SET_NO":999,"REV_AT_EPOCH":4286,"BSTAR":0.0001859836,"MEAN_MOTION_DOT":0.00001238,"MEAN_MOTION_DDOT":0},{"OBJECT_NAME":"KUIPER-00144","OBJECT_ID":"2025-301A","EPOCH":"2026-07-18T07:21:02.388960","CLASSIFICATION_TYPE":"U","MEAN_MOTION":14.79925716,"ECCENTRICITY":0.0000444,"INCLINATION":51.9007,"RA_OF_ASC_NODE":198.0327,"ARG_OF_PERICENTER":56.4331,"MEAN_ANOMALY":303.6674,"EPHEMERIS_TYPE":0,"NORAD_CAT_ID":67133,"ELEMENT_SET_NO":999,"REV_AT_EPOCH":3321,"BSTAR":0.00016252183,"MEAN_MOTION_DOT":0.00001018,"MEAN_MOTION_DDOT":0},{"OBJECT_NAME":"KUIPER-00164","OBJECT_ID":"2025-301B","EPOCH":"2026-07-18T06:57:37.842048","CLASSIFICATION_TYPE":"U","MEAN_MOTION":14.77120902,"ECCENTRICITY":0.00009406,"INCLINATION":51.9032,"RA_OF_ASC_NODE":210.5818,"ARG_OF_PERICENTER":96.8235,"MEAN_ANOMALY":263.2833,"EPHEMERIS_TYPE":0,"NORAD_CAT_ID":67134,"ELEMENT_SET_NO":999,"REV_AT_EPOCH":3321,"BSTAR":0.0070334124,"MEAN_MOTION_DOT":0.0005033,"MEAN_MOTION_DDOT":0},{"OBJECT_NAME":"KUIPER-00175","OBJECT_ID":"2025-301C","EPOCH":"2026-07-18T06:40:04.554336","CLASSIFICATION_TYPE":"U","MEAN_MOTION":14.79921506,"ECCENTRICITY":0.00007759,"INCLINATION":51.8993,"RA_OF_ASC_NODE":193.1172,"ARG_OF_PERICENTER":101.8092,"MEAN_ANOMALY":258.2958,"EPHEMERIS_TYPE":0,"NORAD_CAT_ID":67135,"ELEMENT_SET_NO":999,"REV_AT_EPOCH":3335,"BSTAR":0.000036526062,"MEAN_MOTION_DOT":5.7e-7,"MEAN_MOTION_DDOT":0},{"OBJECT_NAME":"KUIPER-00179","OBJECT_ID":"2025-301D","EPOCH":"2026-07-18T07:05:30.242688","CLASSIFICATION_TYPE":"U","MEAN_MOTION":14.79939611,"ECCENTRICITY":0.00004077,"INCLINATION":51.8976,"RA_OF_ASC_NODE":208.0498,"ARG_OF_PERICENTER":63.4164,"MEAN_ANOMALY":296.684,"EPHEMERIS_TYPE":0,"NORAD_CAT_ID":67136,"ELEMENT_SET_NO":999,"REV_AT_EPOCH":3325,"BSTAR":0.00016835296,"MEAN_MOTION_DOT":0.00001063,"MEAN_MOTION_DDOT":0},{"OBJECT_NAME":"KUIPER-00181","OBJECT_ID":"2025-301E","EPOCH":"2026-07-17T01:35:41.813088","CLASSIFICATION_TYPE":"U","MEAN_MOTION":14.79926709,"ECCENTRICITY":0.00009563,"INCLINATION":51.9018,"RA_OF_ASC_NODE":226.0238,"ARG_OF_PERICENTER":64.9664,"MEAN_ANOMALY":295.1398,"EPHEMERIS_TYPE":0,"NORAD_CAT_ID":67137,"ELEMENT_SET_NO":999,"REV_AT_EPOCH":3287,"BSTAR":0.00017734332,"MEAN_MOTION_DOT":0.00001131,"MEAN_MOTION_DDOT":0},{"OBJECT_NAME":"KUIPER-00183","OBJECT_ID":"2025-301F","EPOCH":"2026-07-18T06:24:16.392960","CLASSIFICATION_TYPE":"U","MEAN_MOTION":14.92769229,"ECCENTRICITY":0.00095711,"INCLINATION":51.8931,"RA_OF_ASC_NODE":192.7039,"ARG_OF_PERICENTER":132.8806,"MEAN_ANOMALY":227.2967,"EPHEMERIS_TYPE":0,"NORAD_CAT_ID":67138,"ELEMENT_SET_NO":999,"REV_AT_EPOCH":3345,"BSTAR":0.00017263729,"MEAN_MOTION_DOT":0.00001553,"MEAN_MOTION_DDOT":0},{"OBJECT_NAME":"KUIPER-00184","OBJECT_ID":"2025-301G","EPOCH":"2026-07-17T17:26:40.132896","CLASSIFICATION_TYPE":"U","MEAN_MOTION":14.79938668,"ECCENTRICITY":0.00003731,"INCLINATION":51.8983,"RA_OF_ASC_NODE":205.5689,"ARG_OF_PERICENTER":61.6245,"MEAN_ANOMALY":298.4755,"EPHEMERIS_TYPE":0,"NORAD_CAT_ID":67139,"ELEMENT_SET_NO":999,"REV_AT_EPOCH":3333,"BSTAR":0.00013261913,"MEAN_MOTION_DOT":0.0000079,"MEAN_MOTION_DDOT":0},{"OBJECT_NAME":"KUIPER-00186","OBJECT_ID":"2025-301H","EPOCH":"2026-07-18T01:05:44.961792","CLASSIFICATION_TYPE":"U","MEAN_MOTION":14.79929403,"ECCENTRICITY":0.00004276,"INCLINATION":51.9016,"RA_OF_ASC_NODE":221.7044,"ARG_OF_PERICENTER":81.7438,"MEAN_ANOMALY":278.3573,"EPHEMERIS_TYPE":0,"NORAD_CAT_ID":67140,"ELEMENT_SET_NO":999,"REV_AT_EPOCH":3286,"BSTAR":0.00016573282,"MEAN_MOTION_DOT":0.00001042,"MEAN_MOTION_DDOT":0},{"OBJECT_NAME":"KUIPER-00187","OBJECT_ID":"2025-301J","EPOCH":"2026-07-18T01:01:53.109120","CLASSIFICATION_TYPE":"U","MEAN_MOTION":14.79939747,"ECCENTRICITY":0.00004055,"INCLINATION":51.9025,"RA_OF_ASC_NODE":224.2402,"ARG_OF_PERICENTER":91.2109,"MEAN_ANOMALY":268.89,"EPHEMERIS_TYPE":0,"NORAD_CAT_ID":67141,"ELEMENT_SET_NO":999,"REV_AT_EPOCH":3282,"BSTAR":0.00014091033,"MEAN_MOTION_DOT":0.00000853,"MEAN_MOTION_DDOT":0},{"OBJECT_NAME":"KUIPER-00188","OBJECT_ID":"2025-301K","EPOCH":"2026-07-18T04:18:14.205312","CLASSIFICATION_TYPE":"U","MEAN_MOTION":14.79927759,"ECCENTRICITY":0.00004999,"INCLINATION":51.9017,"RA_OF_ASC_NODE":191.2237,"ARG_OF_PERICENTER":67.251,"MEAN_ANOMALY":292.8505,"EPHEMERIS_TYPE":0,"NORAD_CAT_ID":67142,"ELEMENT_SET_NO":999,"REV_AT_EPOCH":3329,"BSTAR":0.0001684116,"MEAN_MOTION_DOT":0.00001063,"MEAN_MOTION_DDOT":0}]}
